<?xml version='1.0' encoding='utf-8'?>
<osm version="0.6" generator="OSMnx 1.9.1"><node id="2224745604" timestamp="2026-03-12T11:09:29Z" uid="1" user="OSMnx" version="1" changeset="1" lat="19.209624" lon="72.899178" /><node id="2236681482" timestamp="2026-03-12T11:09:29Z" uid="1" user="OSMnx" version="1" changeset="1" lat="19.170488" lon="72.918723" /><node id="245681677" timestamp="2026-03-12T11:09:29Z" uid="1" user="OSMnx" version="1" changeset="1" lat="19.22522" lon="72.884015" /><node id="2224745618" timestamp="2026-03-12T11:09:29Z" uid="1" user="OSMnx" version="1" changeset="1" lat="19.213518" lon="72.880676" /><node id="2224745623" timestamp="2026-03-12T11:09:29Z" uid="1" user="OSMnx" version="1" changeset="1" lat="19.214348" lon="72.878923" /><node id="2224745375" timestamp="2026-03-12T11:09:29Z" uid="1" user="OSMnx" version="1" changeset="1" lat="19.185586" lon="72.915818" /><node id="1074578468" timestamp="2026-03-12T11:09:29Z" uid="1" user="OSMnx" version="1" changeset="1" lat="19.22907" lon="72.873176" /><node id="4791333671" timestamp="2026-03-12T11:09:29Z" uid="1" user="OSMnx" version="1" changeset="1" lat="19.173005" lon="72.916316" /><node id="1074578473" timestamp="2026-03-12T11:09:29Z" uid="1" user="OSMnx" version="1" changeset="1" lat="19.229873" lon="72.874587" /><node id="4791333676" timestamp="2026-03-12T11:09:29Z" uid="1" user="OSMnx" version="1" changeset="1" lat="19.173792" lon="72.914296" /><node id="1074578481" timestamp="2026-03-12T11:09:29Z" uid="1" user="OSMnx" version="1" changeset="1" lat="19.231493" lon="72.874603" /><node id="1074578488" timestamp="2026-03-12T11:09:29Z" uid="1" user="OSMnx" version="1" changeset="1" lat="19.233609" lon="72.877083" /><node id="2224745659" timestamp="2026-03-12T11:09:29Z" uid="1" user="OSMnx" version="1" changeset="1" lat="19.228436" lon="72.873771" /><node id="4791333698" timestamp="2026-03-12T11:09:29Z" uid="1" user="OSMnx" version="1" changeset="1" lat="19.168892" lon="72.908699" /><node id="4357075013" timestamp="2026-03-12T11:09:29Z" uid="1" user="OSMnx" version="1" changeset="1" lat="19.213287" lon="72.879213" /><node id="245682249" timestamp="2026-03-12T11:09:29Z" uid="1" user="OSMnx" version="1" changeset="1" lat="19.237921" lon="72.880185" /><node id="4598168652" timestamp="2026-03-12T11:09:29Z" uid="1" user="OSMnx" version="1" changeset="1" lat="19.227613" lon="72.868002" /><node id="997643340" timestamp="2026-03-12T11:09:29Z" uid="1" user="OSMnx" version="1" changeset="1" lat="19.231501" lon="72.86386" /><node id="7291368913" timestamp="2026-03-12T11:09:29Z" uid="1" user="OSMnx" version="1" changeset="1" lat="19.226944" lon="72.877113" /><node id="4791333720" timestamp="2026-03-12T11:09:29Z" uid="1" user="OSMnx" version="1" changeset="1" lat="19.172695" lon="72.913897" /><node id="2224745696" timestamp="2026-03-12T11:09:29Z" uid="1" user="OSMnx" version="1" changeset="1" lat="19.230136" lon="72.870104" /><node id="7291368930" timestamp="2026-03-12T11:09:29Z" uid="1" user="OSMnx" version="1" changeset="1" lat="19.227785" lon="72.877537" /><node id="996409065" timestamp="2026-03-12T11:09:29Z" uid="1" user="OSMnx" version="1" changeset="1" lat="19.164676" lon="72.894076" /><node id="564724973" timestamp="2026-03-12T11:09:29Z" uid="1" user="OSMnx" version="1" changeset="1" lat="19.223693" lon="72.880064" /><node id="4791333742" timestamp="2026-03-12T11:09:29Z" uid="1" user="OSMnx" version="1" changeset="1" lat="19.175512" lon="72.913489" /><node id="283211631" timestamp="2026-03-12T11:09:29Z" uid="1" user="OSMnx" version="1" changeset="1" lat="19.206873" lon="72.903962" /><node id="4791333750" timestamp="2026-03-12T11:09:29Z" uid="1" user="OSMnx" version="1" changeset="1" lat="19.182051" lon="72.91451" /><way id="0" timestamp="2026-03-12T11:09:29Z" uid="1" user="OSMnx" version="1" changeset="1"><nd ref="2224745604" /><nd ref="245681677" /><tag k="highway" v="unclassified" /><tag k="name" v="Kanheri Caves Road" /></way><way id="1" timestamp="2026-03-12T11:09:29Z" uid="1" user="OSMnx" version="1" changeset="1"><nd ref="2224745604" /><nd ref="4791333750" /><tag k="highway" v="unclassified" /></way><way id="2" timestamp="2026-03-12T11:09:29Z" uid="1" user="OSMnx" version="1" changeset="1"><nd ref="245681677" /><nd ref="7291368930" /><tag k="highway" v="residential" /><tag k="name" v="Mafco Road" /></way><way id="3" timestamp="2026-03-12T11:09:29Z" uid="1" user="OSMnx" version="1" changeset="1"><nd ref="2224745623" /><nd ref="2224745618" /><tag k="highway" v="residential" /><tag k="name" v="MESB Colony Road" /></way><way id="4" timestamp="2026-03-12T11:09:29Z" uid="1" user="OSMnx" version="1" changeset="1"><nd ref="2224745623" /><nd ref="4357075013" /><tag k="highway" v="residential" /></way><way id="5" timestamp="2026-03-12T11:09:29Z" uid="1" user="OSMnx" version="1" changeset="1"><nd ref="2224745375" /><nd ref="4791333671" /><tag k="highway" v="unclassified" /></way><way id="6" timestamp="2026-03-12T11:09:29Z" uid="1" user="OSMnx" version="1" changeset="1"><nd ref="1074578468" /><nd ref="2224745696" /><tag k="highway" v="residential" /></way><way id="7" timestamp="2026-03-12T11:09:29Z" uid="1" user="OSMnx" version="1" changeset="1"><nd ref="4791333671" /><nd ref="2236681482" /><tag k="highway" v="unclassified" /></way><way id="8" timestamp="2026-03-12T11:09:29Z" uid="1" user="OSMnx" version="1" changeset="1"><nd ref="1074578473" /><nd ref="1074578468" /><tag k="highway" v="residential" /></way><way id="9" timestamp="2026-03-12T11:09:29Z" uid="1" user="OSMnx" version="1" changeset="1"><nd ref="4791333676" /><nd ref="4791333671" /><tag k="highway" v="unclassified" /></way><way id="10" timestamp="2026-03-12T11:09:29Z" uid="1" user="OSMnx" version="1" changeset="1"><nd ref="4791333676" /><nd ref="4791333742" /><tag k="highway" v="unclassified" /></way><way id="11" timestamp="2026-03-12T11:09:29Z" uid="1" user="OSMnx" version="1" changeset="1"><nd ref="1074578481" /><nd ref="1074578488" /><tag k="highway" v="residential" /></way><way id="12" timestamp="2026-03-12T11:09:29Z" uid="1" user="OSMnx" version="1" changeset="1"><nd ref="1074578481" /><nd ref="1074578473" /><tag k="highway" v="residential" /></way><way id="13" timestamp="2026-03-12T11:09:29Z" uid="1" user="OSMnx" version="1" changeset="1"><nd ref="1074578488" /><nd ref="245682249" /><tag k="highway" v="residential" /></way><way id="14" timestamp="2026-03-12T11:09:29Z" uid="1" user="OSMnx" version="1" changeset="1"><nd ref="1074578488" /><nd ref="1074578473" /><tag k="highway" v="residential" /></way><way id="15" timestamp="2026-03-12T11:09:29Z" uid="1" user="OSMnx" version="1" changeset="1"><nd ref="2224745659" /><nd ref="1074578468" /><tag k="highway" v="residential" /></way><way id="16" timestamp="2026-03-12T11:09:29Z" uid="1" user="OSMnx" version="1" changeset="1"><nd ref="4791333698" /><nd ref="996409065" /><tag k="highway" v="unclassified" /></way><way id="17" timestamp="2026-03-12T11:09:29Z" uid="1" user="OSMnx" version="1" changeset="1"><nd ref="4791333698" /><nd ref="4791333742" /><tag k="highway" v="unclassified" /></way><way id="18" timestamp="2026-03-12T11:09:29Z" uid="1" user="OSMnx" version="1" changeset="1"><nd ref="4598168652" /><nd ref="2224745659" /><tag k="highway" v="residential" /></way><way id="19" timestamp="2026-03-12T11:09:29Z" uid="1" user="OSMnx" version="1" changeset="1"><nd ref="4598168652" /><nd ref="564724973" /><tag k="highway" v="unclassified" /><tag k="maxspeed" v="40" /><tag k="name" v="Kanheri Caves Road" /></way><way id="20" timestamp="2026-03-12T11:09:29Z" uid="1" user="OSMnx" version="1" changeset="1"><nd ref="997643340" /><nd ref="4598168652" /><tag k="highway" v="unclassified" /><tag k="maxspeed" v="40" /><tag k="name" v="Kanheri Caves Road" /></way><way id="21" timestamp="2026-03-12T11:09:29Z" uid="1" user="OSMnx" version="1" changeset="1"><nd ref="4791333720" /><nd ref="4791333676" /><tag k="highway" v="unclassified" /></way><way id="22" timestamp="2026-03-12T11:09:29Z" uid="1" user="OSMnx" version="1" changeset="1"><nd ref="7291368930" /><nd ref="2224745659" /><tag k="highway" v="residential" /><tag k="name" v="Mafco Road" /></way><way id="23" timestamp="2026-03-12T11:09:29Z" uid="1" user="OSMnx" version="1" changeset="1"><nd ref="7291368930" /><nd ref="7291368913" /><tag k="highway" v="residential" /></way><way id="24" timestamp="2026-03-12T11:09:29Z" uid="1" user="OSMnx" version="1" changeset="1"><nd ref="564724973" /><nd ref="2224745623" /><tag k="highway" v="residential" /><tag k="name" v="MESB Colony Road" /></way><way id="25" timestamp="2026-03-12T11:09:29Z" uid="1" user="OSMnx" version="1" changeset="1"><nd ref="564724973" /><nd ref="245681677" /><tag k="highway" v="unclassified" /><tag k="maxspeed" v="40" /><tag k="name" v="Kanheri Caves Road" /></way><way id="26" timestamp="2026-03-12T11:09:29Z" uid="1" user="OSMnx" version="1" changeset="1"><nd ref="4791333742" /><nd ref="4791333750" /><tag k="highway" v="unclassified" /></way><way id="27" timestamp="2026-03-12T11:09:29Z" uid="1" user="OSMnx" version="1" changeset="1"><nd ref="283211631" /><nd ref="2224745604" /><tag k="highway" v="unclassified" /><tag k="name" v="Kanheri Caves Road" /></way></osm>