<?xml version='1.0' encoding='utf-8'?>
<osm version="0.6" generator="OSMnx 1.9.1"><node id="2207518679" timestamp="2026-04-01T22:02:33Z" uid="1" user="OSMnx" version="1" changeset="1" lat="26.846176" lon="80.944693" /><node id="2207518697" timestamp="2026-04-01T22:02:33Z" uid="1" user="OSMnx" version="1" changeset="1" lat="26.84644" lon="80.944301" /><node id="2207518720" timestamp="2026-04-01T22:02:33Z" uid="1" user="OSMnx" version="1" changeset="1" lat="26.84669" lon="80.944993" /><node id="2207518736" timestamp="2026-04-01T22:02:33Z" uid="1" user="OSMnx" version="1" changeset="1" lat="26.846872" lon="80.944716" /><node id="2207518740" timestamp="2026-04-01T22:02:33Z" uid="1" user="OSMnx" version="1" changeset="1" lat="26.846896" lon="80.944679" /><node id="2207518761" timestamp="2026-04-01T22:02:33Z" uid="1" user="OSMnx" version="1" changeset="1" lat="26.847089" lon="80.944388" /><way id="0" timestamp="2026-04-01T22:02:33Z" uid="1" user="OSMnx" version="1" changeset="1"><nd ref="2207518697" /><nd ref="2207518679" /><tag k="highway" v="residential" /></way><way id="1" timestamp="2026-04-01T22:02:33Z" uid="1" user="OSMnx" version="1" changeset="1"><nd ref="2207518736" /><nd ref="2207518720" /><tag k="highway" v="residential" /></way><way id="2" timestamp="2026-04-01T22:02:33Z" uid="1" user="OSMnx" version="1" changeset="1"><nd ref="2207518740" /><nd ref="2207518697" /><tag k="highway" v="residential" /></way><way id="3" timestamp="2026-04-01T22:02:33Z" uid="1" user="OSMnx" version="1" changeset="1"><nd ref="2207518740" /><nd ref="2207518736" /><tag k="highway" v="residential" /></way><way id="4" timestamp="2026-04-01T22:02:33Z" uid="1" user="OSMnx" version="1" changeset="1"><nd ref="2207518761" /><nd ref="2207518740" /><tag k="highway" v="residential" /></way></osm>