<?xml version='1.0' encoding='utf-8'?>
<osm attribution="https://www.openstreetmap.org/copyright" copyright="OpenStreetMap and contributors" generator="OSMnx 2.1.0" license="https://opendatacommons.org/licenses/odbl/1-0/" version="0.6"><bounds minlon="77.2371161" minlat="28.6578548" maxlon="77.2374581" maxlat="28.6579767" /><node changeset="1" uid="1" user="OSMnx" lat="28.6579767" visible="true" timestamp="2026-04-07T22:39:36Z" version="1" id="7601510587" lon="77.2374581" /><node changeset="1" uid="1" user="OSMnx" lat="28.657902" visible="true" timestamp="2026-04-07T22:39:36Z" version="1" id="7601510588" lon="77.2372636" /><node changeset="1" uid="1" user="OSMnx" lat="28.6578548" visible="true" timestamp="2026-04-07T22:39:36Z" version="1" id="7601510589" lon="77.2371161" /><way changeset="1" version="1" visible="true" timestamp="2026-04-07T22:39:36Z" uid="1" id="813772249" user="OSMnx"><nd ref="7601510589" /><nd ref="7601510588" /><nd ref="7601510587" /><tag k="highway" v="residential" /></way></osm>