<?xml version='1.0' encoding='utf-8'?>
<osm attribution="https://www.openstreetmap.org/copyright" copyright="OpenStreetMap and contributors" generator="OSMnx 2.1.0" license="https://opendatacommons.org/licenses/odbl/1-0/" version="0.6"><bounds minlon="77.2371161" minlat="28.6578548" maxlon="77.2374581" maxlat="28.6579767" /><node changeset="1" id="7601510587" uid="1" timestamp="2026-04-08T18:26:11Z" visible="true" lat="28.6579767" lon="77.2374581" user="OSMnx" version="1" /><node changeset="1" id="7601510588" uid="1" timestamp="2026-04-08T18:26:11Z" visible="true" lat="28.657902" lon="77.2372636" user="OSMnx" version="1" /><node changeset="1" id="7601510589" uid="1" timestamp="2026-04-08T18:26:11Z" visible="true" lat="28.6578548" lon="77.2371161" user="OSMnx" version="1" /><way changeset="1" id="813772249" user="OSMnx" uid="1" version="1" timestamp="2026-04-08T18:26:11Z" visible="true"><nd ref="7601510589" /><nd ref="7601510588" /><nd ref="7601510587" /><tag k="highway" v="residential" /></way></osm>